STARLINK-36517          
1 67454U 26008K   26036.16668981 -.02091433  00000+0 -32661-1 0  9996
2 67454  43.0005  31.1985 0001127 260.5595  36.2301 15.56186519  4589
STARLINK-36516          
1 67455U 26008L   26036.16668981 -.02122683  00000+0 -30114-1 0  9990
2 67455  42.9999  31.0966 0001351 268.6186  69.9473 15.58765284  4567
STARLINK-36493          
1 67456U 26008M   26036.16668981 -.02110378  00000+0 -28956-1 0  9990
2 67456  43.0002  31.0794 0001272 265.8195  79.8081 15.59617223  4560
STARLINK-36529          
1 67457U 26008N   26036.16668981 -.02095824  00000+0 -23863-1 0  9991
2 67457  43.0001  30.9410 0001115 275.8593 125.4595 15.64881511  4569
STARLINK-36528          
1 67458U 26008P   26036.02525259 -.00911798  00000+0 -73671-2 0  9995
2 67458  42.9998  31.6934 0002051 278.0390  82.0246 15.72534351  4558
STARLINK-36546          
1 67459U 26008Q   26036.16668981 -.02099076  00000+0 -23851-1 0  9993
2 67459  43.0001  30.9251 0001157 277.7163 129.7937 15.64937398  4566
STARLINK-36523          
1 67460U 26008R   26036.16668981 -.02093794  00000+0 -23186-1 0  9997
2 67460  43.0000  30.9083 0001006 278.5191 135.8563 15.65566240  4583
STARLINK-36522          
1 67461U 26008S   26036.16668981 -.02113890  00000+0 -29543-1 0  9991
2 67461  43.0001  31.0640 0001179 268.7223  82.4382 15.59144589  4569
STARLINK-36504          
1 67462U 26008T   26035.00868680  .00209146  00000+0  13425-2 0  9991
2 67462  43.0000  37.8305 0002675 190.7377 169.3435 15.74843030  4396
STARLINK-36505          
1 67463U 26008U   26036.16668981 -.02100342  00000+0 -21768-1 0  9992
2 67463  42.9997  30.8664 0001027 274.5287 156.8957 15.67197106  4569
STARLINK-36421          
1 67464U 26008V   26036.16668981 -.02118718  00000+0 -29756-1 0  9994
2 67464  43.0005  31.0545 0001196 267.8411  87.5008 15.59024680  4568
STARLINK-36437          
1 67465U 26008W   26036.16668981 -.02100962  00000+0 -21429-1 0  9996
2 67465  42.9999  30.8493 0001051 277.3797 160.2599 15.67586097  4569
