CCSDS_OMM_VERS = 2.0
CREATION_DATE  = 
ORIGINATOR     = 

OBJECT_NAME    = STARLINK-36517
OBJECT_ID      = 2026-008K
CENTER_NAME    = EARTH
REF_FRAME      = TEME
TIME_SYSTEM    = UTC
MEAN_ELEMENT_THEORY = SGP/SGP4

EPOCH          = 2026-02-05T04:00:01.999584
MEAN_MOTION    = 15.56186519
ECCENTRICITY   = .0001127
INCLINATION    = 43.0005
RA_OF_ASC_NODE = 31.1985
ARG_OF_PERICENTER = 260.5595
MEAN_ANOMALY   = 36.2301

EPHEMERIS_TYPE = 0
CLASSIFICATION_TYPE = U
NORAD_CAT_ID   = 67454
ELEMENT_SET_NO = 999
REV_AT_EPOCH   = 458
BSTAR          = -.32661E-1
MEAN_MOTION_DOT = -.2091433E-1
MEAN_MOTION_DDOT = 0

CCSDS_OMM_VERS = 2.0
CREATION_DATE  = 
ORIGINATOR     = 

OBJECT_NAME    = STARLINK-36516
OBJECT_ID      = 2026-008L
CENTER_NAME    = EARTH
REF_FRAME      = TEME
TIME_SYSTEM    = UTC
MEAN_ELEMENT_THEORY = SGP/SGP4

EPOCH          = 2026-02-05T04:00:01.999584
MEAN_MOTION    = 15.58765284
ECCENTRICITY   = .0001351
INCLINATION    = 42.9999
RA_OF_ASC_NODE = 31.0966
ARG_OF_PERICENTER = 268.6186
MEAN_ANOMALY   = 69.9473

EPHEMERIS_TYPE = 0
CLASSIFICATION_TYPE = U
NORAD_CAT_ID   = 67455
ELEMENT_SET_NO = 999
REV_AT_EPOCH   = 456
BSTAR          = -.30114E-1
MEAN_MOTION_DOT = -.2122683E-1
MEAN_MOTION_DDOT = 0

CCSDS_OMM_VERS = 2.0
CREATION_DATE  = 
ORIGINATOR     = 

OBJECT_NAME    = STARLINK-36493
OBJECT_ID      = 2026-008M
CENTER_NAME    = EARTH
REF_FRAME      = TEME
TIME_SYSTEM    = UTC
MEAN_ELEMENT_THEORY = SGP/SGP4

EPOCH          = 2026-02-05T04:00:01.999584
MEAN_MOTION    = 15.59617223
ECCENTRICITY   = .0001272
INCLINATION    = 43.0002
RA_OF_ASC_NODE = 31.0794
ARG_OF_PERICENTER = 265.8195
MEAN_ANOMALY   = 79.8081

EPHEMERIS_TYPE = 0
CLASSIFICATION_TYPE = U
NORAD_CAT_ID   = 67456
ELEMENT_SET_NO = 999
REV_AT_EPOCH   = 456
BSTAR          = -.28956E-1
MEAN_MOTION_DOT = -.2110378E-1
MEAN_MOTION_DDOT = 0

CCSDS_OMM_VERS = 2.0
CREATION_DATE  = 
ORIGINATOR     = 

OBJECT_NAME    = STARLINK-36529
OBJECT_ID      = 2026-008N
CENTER_NAME    = EARTH
REF_FRAME      = TEME
TIME_SYSTEM    = UTC
MEAN_ELEMENT_THEORY = SGP/SGP4

EPOCH          = 2026-02-05T04:00:01.999584
MEAN_MOTION    = 15.64881511
ECCENTRICITY   = .0001115
INCLINATION    = 43.0001
RA_OF_ASC_NODE = 30.9410
ARG_OF_PERICENTER = 275.8593
MEAN_ANOMALY   = 125.4595

EPHEMERIS_TYPE = 0
CLASSIFICATION_TYPE = U
NORAD_CAT_ID   = 67457
ELEMENT_SET_NO = 999
REV_AT_EPOCH   = 456
BSTAR          = -.23863E-1
MEAN_MOTION_DOT = -.2095824E-1
MEAN_MOTION_DDOT = 0

CCSDS_OMM_VERS = 2.0
CREATION_DATE  = 
ORIGINATOR     = 

OBJECT_NAME    = STARLINK-36528
OBJECT_ID      = 2026-008P
CENTER_NAME    = EARTH
REF_FRAME      = TEME
TIME_SYSTEM    = UTC
MEAN_ELEMENT_THEORY = SGP/SGP4

EPOCH          = 2026-02-05T00:36:21.823776
MEAN_MOTION    = 15.72534351
ECCENTRICITY   = .0002051
INCLINATION    = 42.9998
RA_OF_ASC_NODE = 31.6934
ARG_OF_PERICENTER = 278.0390
MEAN_ANOMALY   = 82.0246

EPHEMERIS_TYPE = 0
CLASSIFICATION_TYPE = U
NORAD_CAT_ID   = 67458
ELEMENT_SET_NO = 999
REV_AT_EPOCH   = 455
BSTAR          = -.73671E-2
MEAN_MOTION_DOT = -.911798E-2
MEAN_MOTION_DDOT = 0

CCSDS_OMM_VERS = 2.0
CREATION_DATE  = 
ORIGINATOR     = 

OBJECT_NAME    = STARLINK-36546
OBJECT_ID      = 2026-008Q
CENTER_NAME    = EARTH
REF_FRAME      = TEME
TIME_SYSTEM    = UTC
MEAN_ELEMENT_THEORY = SGP/SGP4

EPOCH          = 2026-02-05T04:00:01.999584
MEAN_MOTION    = 15.64937398
ECCENTRICITY   = .0001157
INCLINATION    = 43.0001
RA_OF_ASC_NODE = 30.9251
ARG_OF_PERICENTER = 277.7163
MEAN_ANOMALY   = 129.7937

EPHEMERIS_TYPE = 0
CLASSIFICATION_TYPE = U
NORAD_CAT_ID   = 67459
ELEMENT_SET_NO = 999
REV_AT_EPOCH   = 456
BSTAR          = -.23851E-1
MEAN_MOTION_DOT = -.2099076E-1
MEAN_MOTION_DDOT = 0

CCSDS_OMM_VERS = 2.0
CREATION_DATE  = 
ORIGINATOR     = 

OBJECT_NAME    = STARLINK-36523
OBJECT_ID      = 2026-008R
CENTER_NAME    = EARTH
REF_FRAME      = TEME
TIME_SYSTEM    = UTC
MEAN_ELEMENT_THEORY = SGP/SGP4

EPOCH          = 2026-02-05T04:00:01.999584
MEAN_MOTION    = 15.65566240
ECCENTRICITY   = .0001006
INCLINATION    = 43.0000
RA_OF_ASC_NODE = 30.9083
ARG_OF_PERICENTER = 278.5191
MEAN_ANOMALY   = 135.8563

EPHEMERIS_TYPE = 0
CLASSIFICATION_TYPE = U
NORAD_CAT_ID   = 67460
ELEMENT_SET_NO = 999
REV_AT_EPOCH   = 458
BSTAR          = -.23186E-1
MEAN_MOTION_DOT = -.2093794E-1
MEAN_MOTION_DDOT = 0

CCSDS_OMM_VERS = 2.0
CREATION_DATE  = 
ORIGINATOR     = 

OBJECT_NAME    = STARLINK-36522
OBJECT_ID      = 2026-008S
CENTER_NAME    = EARTH
REF_FRAME      = TEME
TIME_SYSTEM    = UTC
MEAN_ELEMENT_THEORY = SGP/SGP4

EPOCH          = 2026-02-05T04:00:01.999584
MEAN_MOTION    = 15.59144589
ECCENTRICITY   = .0001179
INCLINATION    = 43.0001
RA_OF_ASC_NODE = 31.0640
ARG_OF_PERICENTER = 268.7223
MEAN_ANOMALY   = 82.4382

EPHEMERIS_TYPE = 0
CLASSIFICATION_TYPE = U
NORAD_CAT_ID   = 67461
ELEMENT_SET_NO = 999
REV_AT_EPOCH   = 456
BSTAR          = -.29543E-1
MEAN_MOTION_DOT = -.211389E-1
MEAN_MOTION_DDOT = 0

CCSDS_OMM_VERS = 2.0
CREATION_DATE  = 
ORIGINATOR     = 

OBJECT_NAME    = STARLINK-36504
OBJECT_ID      = 2026-008T
CENTER_NAME    = EARTH
REF_FRAME      = TEME
TIME_SYSTEM    = UTC
MEAN_ELEMENT_THEORY = SGP/SGP4

EPOCH          = 2026-02-04T00:12:30.539520
MEAN_MOTION    = 15.74843030
ECCENTRICITY   = .00026759
INCLINATION    = 43.0000
RA_OF_ASC_NODE = 37.8305
ARG_OF_PERICENTER = 190.7377
MEAN_ANOMALY   = 169.3435

EPHEMERIS_TYPE = 0
CLASSIFICATION_TYPE = U
NORAD_CAT_ID   = 67462
ELEMENT_SET_NO = 999
REV_AT_EPOCH   = 439
BSTAR          = .13424593E-2
MEAN_MOTION_DOT = .209146E-2
MEAN_MOTION_DDOT = 0

CCSDS_OMM_VERS = 2.0
CREATION_DATE  = 
ORIGINATOR     = 

OBJECT_NAME    = STARLINK-36505
OBJECT_ID      = 2026-008U
CENTER_NAME    = EARTH
REF_FRAME      = TEME
TIME_SYSTEM    = UTC
MEAN_ELEMENT_THEORY = SGP/SGP4

EPOCH          = 2026-02-05T04:00:01.999584
MEAN_MOTION    = 15.67197106
ECCENTRICITY   = .0001027
INCLINATION    = 42.9997
RA_OF_ASC_NODE = 30.8664
ARG_OF_PERICENTER = 274.5287
MEAN_ANOMALY   = 156.8957

EPHEMERIS_TYPE = 0
CLASSIFICATION_TYPE = U
NORAD_CAT_ID   = 67463
ELEMENT_SET_NO = 999
REV_AT_EPOCH   = 456
BSTAR          = -.21768E-1
MEAN_MOTION_DOT = -.2100342E-1
MEAN_MOTION_DDOT = 0

CCSDS_OMM_VERS = 2.0
CREATION_DATE  = 
ORIGINATOR     = 

OBJECT_NAME    = STARLINK-36421
OBJECT_ID      = 2026-008V
CENTER_NAME    = EARTH
REF_FRAME      = TEME
TIME_SYSTEM    = UTC
MEAN_ELEMENT_THEORY = SGP/SGP4

EPOCH          = 2026-02-05T04:00:01.999584
MEAN_MOTION    = 15.59024680
ECCENTRICITY   = .0001196
INCLINATION    = 43.0005
RA_OF_ASC_NODE = 31.0545
ARG_OF_PERICENTER = 267.8411
MEAN_ANOMALY   = 87.5008

EPHEMERIS_TYPE = 0
CLASSIFICATION_TYPE = U
NORAD_CAT_ID   = 67464
ELEMENT_SET_NO = 999
REV_AT_EPOCH   = 456
BSTAR          = -.29756E-1
MEAN_MOTION_DOT = -.2118718E-1
MEAN_MOTION_DDOT = 0

CCSDS_OMM_VERS = 2.0
CREATION_DATE  = 
ORIGINATOR     = 

OBJECT_NAME    = STARLINK-36437
OBJECT_ID      = 2026-008W
CENTER_NAME    = EARTH
REF_FRAME      = TEME
TIME_SYSTEM    = UTC
MEAN_ELEMENT_THEORY = SGP/SGP4

EPOCH          = 2026-02-05T04:00:01.999584
MEAN_MOTION    = 15.67586097
ECCENTRICITY   = .0001051
INCLINATION    = 42.9999
RA_OF_ASC_NODE = 30.8493
ARG_OF_PERICENTER = 277.3797
MEAN_ANOMALY   = 160.2599

EPHEMERIS_TYPE = 0
CLASSIFICATION_TYPE = U
NORAD_CAT_ID   = 67465
ELEMENT_SET_NO = 999
REV_AT_EPOCH   = 456
BSTAR          = -.21429E-1
MEAN_MOTION_DOT = -.2100962E-1
MEAN_MOTION_DDOT = 0

